GLOBALSTAR M035         
1 25851U 99037A   24231.88348541 -.00000037  00000+0  10127-2 0  9995
2 25851  51.9988   9.1271 0013398 209.2761 322.5333 11.04532086 62867
GLOBALSTAR M032         
1 25852U 99037B   24231.43537657 -.00000085  00000+0 -57591-3 0  9996
2 25852  51.9915 216.2127 0010354  14.6402 345.4696 11.19059688100898
GLOBALSTAR M051         
1 25853U 99037C   24231.78522603 -.00000059  00000+0  30817-3 0  9992
2 25853  51.9801  50.3943 0002017  53.8882 306.2115 11.42198423 97837
GLOBALSTAR M030         
1 25854U 99037D   24231.47139914 -.00000053  00000+0  45505-3 0  9992
2 25854  51.9842 236.5090 0003725 224.2019 135.8500 11.55100012115068
GLOBALSTAR M048         
1 25872U 99041A   24231.66916059 -.00000052  00000+0  49673-3 0  9990
2 25872  51.9404 334.0162 0013217  23.3458 124.7316 11.33848025 90667
GLOBALSTAR M026         
1 25873U 99041B   24231.88227069 -.00000074  00000+0 -37138-3 0  9999
2 25873  51.9997 130.2683 0001644  79.3956 359.6275 11.06834277115018
GLOBALSTAR M043         
1 25874U 99041C   24231.93414103 -.00000004  00000+0  18995-2 0  9994
2 25874  51.9406  68.9810 0012869 151.6053 357.0873 11.25687388 88831
GLOBALSTAR M028         
1 25875U 99041D   24231.79784672 -.00000069  00000+0  20722-3 0  9993
2 25875  51.9645  14.7219 0064133 134.4199 226.1935 12.50561864152342
